{
    "links": {
        "self": "http://www.neowsapp.com/rest/v1/neo/3842750?api_key=iIulBulltgU6a56xZRHN4H3l9WmuAYTsLGpBGhQ2"
    },
    "id": "3842750",
    "neo_reference_id": "3842750",
    "name": "(2018 PP29)",
    "designation": "2018 PP29",
    "nasa_jpl_url": "http://ssd.jpl.nasa.gov/sbdb.cgi?sstr=3842750",
    "absolute_magnitude_h": 21.7,
    "estimated_diameter": {
        "kilometers": {
            "estimated_diameter_min": 0.1214940408,
            "estimated_diameter_max": 0.2716689341
        },
        "meters": {
            "estimated_diameter_min": 121.4940407996,
            "estimated_diameter_max": 271.6689340891
        },
        "miles": {
            "estimated_diameter_min": 0.0754928736,
            "estimated_diameter_max": 0.1688071972
        },
        "feet": {
            "estimated_diameter_min": 398.6025088171,
            "estimated_diameter_max": 891.3023057169
        }
    },
    "is_potentially_hazardous_asteroid": true,
    "close_approach_data": [
        {
            "close_approach_date": "2018-09-24",
            "close_approach_date_full": "2018-Sep-24 00:56",
            "epoch_date_close_approach": 1537750560000,
            "relative_velocity": {
                "kilometers_per_second": "15.6401037532",
                "kilometers_per_hour": "56304.3735116755",
                "miles_per_hour": "34985.3480856297"
            },
            "miss_distance": {
                "astronomical": "0.326917373",
                "lunar": "127.170858097",
                "kilometers": "48906142.66679551",
                "miles": "30388867.902617638"
            },
            "orbiting_body": "Earth"
        }
    ],
    "orbital_data": {
        "orbit_id": "2",
        "orbit_determination_date": "2020-05-12 06:40:57",
        "first_observation_date": "2018-08-13",
        "last_observation_date": "2018-09-09",
        "data_arc_in_days": 27,
        "observations_used": 17,
        "orbit_uncertainty": "8",
        "minimum_orbit_intersection": ".0289573",
        "jupiter_tisserand_invariant": "2.611",
        "epoch_osculation": "2458356.5",
        "eccentricity": ".7431249337763886",
        "semi_major_axis": "3.192512186476245",
        "inclination": "20.59149129725459",
        "ascending_node_longitude": "119.3981621983758",
        "orbital_period": "2083.518075242389",
        "perihelion_distance": ".8200767793207719",
        "perihelion_argument": "301.5455627333887",
        "aphelion_distance": "5.564947593631718",
        "perihelion_time": "2458427.942385138006",
        "mean_anomaly": "347.6558504793916",
        "mean_motion": ".1727846781257796",
        "equinox": "J2000",
        "orbit_class": {
            "orbit_class_type": "APO",
            "orbit_class_description": "Near-Earth asteroid orbits which cross the Earth’s orbit similar to that of 1862 Apollo",
            "orbit_class_range": "a (semi-major axis) > 1.0 AU; q (perihelion) < 1.017 AU"
        }
    },
    "is_sentry_object": false
}